KUZGTU 1 (RS47S)        
1 57217U 23091AV  26188.56897274  .00008120  00000+0  27878-3 0  9995
2 57217  97.5051 253.2616 0010884  32.7971 327.3943 15.30352567167491
SONATE-2                
1 59112U 24043Q   26188.47896187  .00031562  00000+0  38565-3 0  9992
2 59112  97.5550 340.1459 0007012 130.6505 229.5363 15.60352887131052
MESAT1                  
1 60209U 24125G   26188.06446918  .00053923  00000+0  53362-3 0  9997
2 60209  97.2265  46.0297 0010913 137.1640 223.0472 15.65621235112677
OOV-CUBE (TUBSAT-30)    
1 60240U 24128F   26187.41788603  .00002062  00000+0  16592-3 0  9995
2 60240  61.9939 158.5121 0042205 138.0070 222.4270 15.02848993109004
COLIBRI-S (RS67S)       
1 61746U 24199M   26188.61608684  .00015766  00000+0  29649-3 0  9990
2 61746  97.2968  62.6648 0007975 189.5260 170.5841 15.48616947140572
HORS 3 (RS81S)          
1 61753U 24199U   26188.60854726  .00027681  00000+0  39128-3 0  9999
2 61753  97.2948  64.8735 0006122 180.5315 179.5935 15.56490794140734
HORS 4 (RS82S)          
1 61754U 24199V   26188.56827011  .00040710  00000+0  47026-3 0  9996
2 61754  97.2888  66.1731 0006094 170.5377 189.5997 15.61776053140824
SIT-2086                
1 61764U 24199AF  26188.61163283  .00027346  00000+0  41421-3 0  9990
2 61764  97.2905  65.2822 0007349 168.0721 192.0709 15.54596771137606
HYPERVIEW 1G (RS66S)    
1 61772U 24199AP  26188.34427283  .00175601  00000+0  82644-3 0  9992
2 61772  97.2823  69.1689 0007795 163.9657 196.1861 15.82610453137851
ALTAIR (RS65S)          
1 61779U 24199AW  26188.61700658  .00005236  00000+0  14475-3 0  9992
2 61779  97.3006  57.8353 0011290 225.8519 134.1798 15.37411170140258
ASRTU-1 (AO-123)        
1 61781U 24199AY  26188.55826096  .00005418  00000+0  15666-3 0  9998
2 61781  97.2977  57.0464 0012268 230.1776 129.8389 15.35977583137056
SAMSAT-IONOSPHERE (RS7*)
1 61784U 24199BB  26188.60525006  .00034398  00000+0  43254-3 0  9997
2 61784  97.2912  64.9962 0008248 186.0022 174.1138 15.59564290140742
RTU MIREA 1 (RS51S)     
1 61785U 24199BC  26188.58139483  .00046540  00000+0  50107-3 0  9992
2 61785  97.2900  65.9150 0008440 179.9918 180.1342 15.63543789137654
TEVEL2-4                
1 63213U 25052D   26188.19567571  .00013726  00000+0  40159-3 0  9995
2 63213  97.3872  84.6269 0004183  68.1516 292.0172 15.35364717 73185
TEVEL2-5                
1 63214U 25052E   26188.15330501  .00012970  00000+0  38186-3 0  9990
2 63214  97.3871  84.5265 0004213  69.6988 290.4708 15.35179600 73174
TEVEL2-6                
1 63215U 25052F   26188.16609048  .00012706  00000+0  37456-3 0  9993
2 63215  97.3876  84.5240 0004074  72.3714 287.7974 15.35145288 73175
TEVEL2-1                
1 63217U 25052H   26187.68057351  .00015226  00000+0  45647-3 0  9996
2 63217  97.3844  83.6383 0004748  76.8203 283.3570 15.34567986 73086
TEVEL2-3                
1 63218U 25052J   26188.13090574  .00013975  00000+0  41826-3 0  9996
2 63218  97.3851  84.1135 0004506  77.8905 282.2843 15.34642806 73152
TEVEL2-2                
1 63219U 25052K   26188.13720452  .00013555  00000+0  40642-3 0  9991
2 63219  97.3844  84.0980 0004750  77.1057 283.0716 15.34592056 73153
OTP-2                   
1 63235U 25052AB  26188.18590456  .00005199  00000+0  21569-3 0  9995
2 63235  97.3841  80.3179 0008297  92.6195 267.5993 15.24265879 72918
TEVEL2-9                
1 63237U 25052AD  26187.68368611  .00013872  00000+0  44317-3 0  9990
2 63237  97.3912  82.9767 0008199  80.0094 280.2072 15.32543225 73015
TEVEL2-7                
1 63238U 25052AE  26188.18557546  .00012392  00000+0  39993-3 0  9994
2 63238  97.3911  83.3851 0008266  78.8500 281.3671 15.32244294 73084
TEVEL2-8                
1 63239U 25052AF  26188.19402064  .00012154  00000+0  39250-3 0  9992
2 63239  97.3910  83.3699 0008234  79.0652 281.1516 15.32229283 73087
INNOSAT 16 (RS92S7)     
1 64878U 25155C   26188.59785316  .00004379  00000+0  17450-3 0  9992
2 64878  97.4576 155.6643 0012384 111.0413 249.2151 15.25682389 83781
GEOSCAN 6 (RS92S6)      
1 64879U 25155D   26188.58235540  .00007473  00000+0  25524-3 0  9990
2 64879  97.4566 157.2191 0009992 103.4819 256.7536 15.30553695 83887
GEOSCAN 1 (RS92S1)      
1 64880U 25155E   26188.57660121  .00007461  00000+0  24989-3 0  9999
2 64880  97.4563 157.3796 0009900 103.4861 256.7484 15.31190089 83892
239ALFEROV (RS61S)      
1 64881U 25155F   26188.58153048  .00010325  00000+0  32058-3 0  9995
2 64881  97.4563 158.0163 0009627 102.9616 257.2702 15.33521577 83933
GEOSCAN 2 (RS92S2)      
1 64890U 25155Q   26188.56675941  .00007575  00000+0  25168-3 0  9991
2 64890  97.4562 157.5301 0009267  93.2663 266.9639 15.31448880 83900
GEOSCAN 5 (RS92S5)      
1 64891U 25155R   26188.56637041  .00009620  00000+0  29607-3 0  9996
2 64891  97.4555 158.1463 0008602 106.7538 253.4649 15.33832019 83941
GEOSCAN 4 (RS92S4)      
1 64892U 25155S   26188.61368932  .00010614  00000+0  32470-3 0  9990
2 64892  97.4559 158.2486 0008567 106.5451 253.6733 15.33995716 83955
