OBJECT_NAME,OBJECT_ID,EPOCH,MEAN_MOTION,ECCENTRICITY,INCLINATION,RA_OF_ASC_NODE,ARG_OF_PERICENTER,MEAN_ANOMALY,EPHEMERIS_TYPE,CLASSIFICATION_TYPE,NORAD_CAT_ID,ELEMENT_SET_NO,REV_AT_EPOCH,BSTAR,MEAN_MOTION_DOT,MEAN_MOTION_DDOT
KUZGTU 1 (RS47S),2023-091AV,2026-07-07T13:39:19.244736,15.30352567,.00108843,97.5051,253.2616,32.7971,327.3943,0,U,57217,999,16749,.27877985E-3,.812E-4,0
SONATE-2,2024-043Q,2026-07-07T11:29:42.305568,15.60352887,.00070123,97.5550,340.1459,130.6505,229.5363,0,U,59112,999,13105,.38565117E-3,.31562E-3,0
MESAT1,2024-125G,2026-07-07T01:32:50.137152,15.65621235,.00109133,97.2265,46.0297,137.1640,223.0472,0,U,60209,999,11267,.53362344E-3,.53923E-3,0
OOV-CUBE (TUBSAT-30),2024-128F,2026-07-06T10:01:45.352992,15.02848993,.00422051,61.9939,158.5121,138.0070,222.4270,0,U,60240,999,10900,.16592493E-3,.2062E-4,0
COLIBRI-S (RS67S),2024-199M,2026-07-07T14:47:09.902976,15.48616947,.00079759,97.2968,62.6648,189.5260,170.5841,0,U,61746,999,14057,.29648513E-3,.15766E-3,0
HORS 3 (RS81S),2024-199U,2026-07-07T14:36:18.483264,15.56490794,.0006122,97.2948,64.8735,180.5315,179.5935,0,U,61753,999,14073,.39128296E-3,.27681E-3,0
HORS 4 (RS82S),2024-199V,2026-07-07T13:38:18.537504,15.61776053,.00060949,97.2888,66.1731,170.5377,189.5997,0,U,61754,999,14082,.47026322E-3,.4071E-3,0
SIT-2086,2024-199AF,2026-07-07T14:40:45.076512,15.54596771,.00073493,97.2905,65.2822,168.0721,192.0709,0,U,61764,999,13760,.41420946E-3,.27346E-3,0
HYPERVIEW 1G (RS66S),2024-199AP,2026-07-07T08:15:45.172512,15.82610453,.00077951,97.2823,69.1689,163.9657,196.1861,0,U,61772,999,13785,.82644406E-3,.175601E-2,0
ALTAIR (RS65S),2024-199AW,2026-07-07T14:48:29.368512,15.37411170,.00112904,97.3006,57.8353,225.8519,134.1798,0,U,61779,999,14025,.14475052E-3,.5236E-4,0
ASRTU-1 (AO-123),2024-199AY,2026-07-07T13:23:53.746944,15.35977583,.00122687,97.2977,57.0464,230.1776,129.8389,0,U,61781,999,13705,.15666327E-3,.5418E-4,0
SAMSAT-IONOSPHERE (RS75S),2024-199BB,2026-07-07T14:31:33.605184,15.59564290,.00082481,97.2912,64.9962,186.0022,174.1138,0,U,61784,999,14074,.43254426E-3,.34398E-3,0
RTU MIREA 1 (RS51S),2024-199BC,2026-07-07T13:57:12.513312,15.63543789,.00084407,97.2900,65.9150,179.9918,180.1342,0,U,61785,999,13765,.50106972E-3,.4654E-3,0
TEVEL2-4,2025-052D,2026-07-07T04:41:46.381344,15.35364717,.00041832,97.3872,84.6269,68.1516,292.0172,0,U,63213,999,7318,.40159497E-3,.13726E-3,0
TEVEL2-5,2025-052E,2026-07-07T03:40:45.552864,15.35179600,.00042134,97.3871,84.5265,69.6988,290.4708,0,U,63214,999,7317,.38185816E-3,.1297E-3,0
TEVEL2-6,2025-052F,2026-07-07T03:59:10.217472,15.35145288,.00040748,97.3876,84.5240,72.3714,287.7974,0,U,63215,999,7317,.37455888E-3,.12706E-3,0
TEVEL2-1,2025-052H,2026-07-06T16:20:01.551264,15.34567986,.0004748,97.3844,83.6383,76.8203,283.3570,0,U,63217,999,7308,.45647174E-3,.15226E-3,0
TEVEL2-3,2025-052J,2026-07-07T03:08:30.255936,15.34642806,.00045064,97.3851,84.1135,77.8905,282.2843,0,U,63218,999,7315,.41825812E-3,.13975E-3,0
TEVEL2-2,2025-052K,2026-07-07T03:17:34.470528,15.34592056,.00047508,97.3844,84.0980,77.1057,283.0716,0,U,63219,999,7315,.40641886E-3,.13555E-3,0
OTP-2,2025-052AB,2026-07-07T04:27:42.153984,15.24265879,.00082973,97.3841,80.3179,92.6195,267.5993,0,U,63235,999,7291,.21568545E-3,.5199E-4,0
TEVEL2-9,2025-052AD,2026-07-06T16:24:30.479904,15.32543225,.0008199,97.3912,82.9767,80.0094,280.2072,0,U,63237,999,7301,.44317011E-3,.13872E-3,0
TEVEL2-7,2025-052AE,2026-07-07T04:27:13.719744,15.32244294,.00082662,97.3911,83.3851,78.8500,281.3671,0,U,63238,999,7308,.39992548E-3,.12392E-3,0
TEVEL2-8,2025-052AF,2026-07-07T04:39:23.383296,15.32229283,.00082344,97.3910,83.3699,79.0652,281.1516,0,U,63239,999,7308,.39250434E-3,.12154E-3,0
INNOSAT 16 (RS92S7),2025-155C,2026-07-07T14:20:54.513024,15.25682389,.00123846,97.4576,155.6643,111.0413,249.2151,0,U,64878,999,8378,.17450443E-3,.4379E-4,0
GEOSCAN 6 (RS92S6),2025-155D,2026-07-07T13:58:35.506560,15.30553695,.0009992,97.4566,157.2191,103.4819,256.7536,0,U,64879,999,8388,.25524184E-3,.7473E-4,0
GEOSCAN 1 (RS92S1),2025-155E,2026-07-07T13:50:18.344544,15.31190089,.00099007,97.4563,157.3796,103.4861,256.7484,0,U,64880,999,8389,.24988592E-3,.7461E-4,0
239ALFEROV (RS61S),2025-155F,2026-07-07T13:57:24.233472,15.33521577,.00096276,97.4563,158.0163,102.9616,257.2702,0,U,64881,999,8393,.32058385E-3,.10325E-3,0
GEOSCAN 2 (RS92S2),2025-155Q,2026-07-07T13:36:08.013024,15.31448880,.00092674,97.4562,157.5301,93.2663,266.9639,0,U,64890,999,8390,.25167776E-3,.7575E-4,0
GEOSCAN 5 (RS92S5),2025-155R,2026-07-07T13:35:34.403424,15.33832019,.00086025,97.4555,158.1463,106.7538,253.4649,0,U,64891,999,8394,.29606739E-3,.962E-4,0
GEOSCAN 4 (RS92S4),2025-155S,2026-07-07T14:43:42.757248,15.33995716,.00085673,97.4559,158.2486,106.5451,253.6733,0,U,64892,999,8395,.3246971E-3,.10614E-3,0
